E-ST@R-II               
1 41459U 16025D   21329.19716589  .00004648  00000+0  22376-3 0  9994
2 41459  98.1639 115.3310 0156083 240.2087 118.3520 15.09190271306656
AAUSAT 4                
1 41460U 16025E   21329.13927483  .00007928  00000+0  35576-3 0  9997
2 41460  98.1607 120.0087 0141967 221.5220 137.5225 15.12837797306990
BEESAT-4                
1 41619U 16040W   21329.11326838  .00003094  00000+0  12048-3 0  9994
2 41619  97.2489  20.6171 0011889 119.0714 241.1718 15.26655561289510
CANX-7                  
1 41788U 16059F   21329.26958552  .00026959  00000+0  25330-2 0  9993
2 41788  98.2454  81.2053 0016151  35.9673 324.2672 14.93795127277806
RAVAN                   
1 41849U 16067B   21328.58094852  .00001615  00000+0  13693-3 0  9990
2 41849  97.9865  95.0975 0005613 308.9650  51.1071 14.99426485275284
CELTEE 1                
1 41850U 16067C   21328.57851172  .00000266  00000+0  28014-4 0  9992
2 41850  97.9748  91.0071 0007457 306.9638  53.0900 14.97666474275083
OPTICUBE 04             
1 41851U 16067D   21329.08944661  .00000876  00000+0  80988-4 0  9991
2 41851  97.9724  90.7916 0007346 305.8057  54.2481 14.97247978275128
AEROCUBE 8D             
1 41852U 16067E   21329.14656092  .00000783  00000+0  72587-4 0  9990
2 41852  97.9713  90.7570 0008287 303.1066  56.9359 14.97445422275115
AEROCUBE 8C             
1 41853U 16067F   21329.12328165  .00000046  00000+0  93023-5 0  9997
2 41853  97.9714  90.5826 0009090 306.4236  53.6147 14.97414938275103
PROMETHEUS 2-1          
1 41854U 16067G   21328.33698956  .00000848  00000+0  77009-4 0  9993
2 41854  97.9715  90.5484 0009393 303.6232  56.4093 14.98026644275022
PROMETHEUS 2-3          
1 41855U 16067H   21329.06728298  .00000705  00000+0  64899-4 0  9993
2 41855  97.9719  91.3576 0009663 301.8747  58.1533 14.98046340275134
INS-1B                  
1 41954U 17008G   21328.39679355  .00003158  00000+0  12084-3 0  9996
2 41954  97.2887  27.9189 0007139 239.4741 120.5794 15.27276968265411
BGUSAT                  
1 41999U 17008BD  21328.43818280  .00006007  00000+0  19681-3 0  9998
2 41999  97.3085  35.9136 0005713 234.7519 125.3188 15.32008323265187
DIDO-2                  
1 42000U 17008BE  21328.39124852  .00001705  00000+0  69000-4 0  9993
2 42000  97.2884  27.9177 0006385 265.0835  94.9675 15.26032077264779
PEASSS                  
1 42015U 17008BV  21328.41104482  .00002859  00000+0  10775-3 0  9994
2 42015  97.2932  30.8834 0004309 261.4478  98.6273 15.27871933265431
AL-FARABI 1             
1 42016U 17008BW  21329.16349821  .00003454  00000+0  12376-3 0  9997
2 42016  97.2988  33.8344 0004142 253.1704 106.9083 15.29403945265783
NAYIF-1 (EO-88)         
1 42017U 17008BX  21329.12515606  .00003620  00000+0  12932-3 0  9993
2 42017  97.2979  33.8029 0004182 251.7101 108.3684 15.29468383265806
UCLSAT                  
1 42765U 17036A   21328.92456566  .00002736  00000+0  10954-3 0  9999
2 42765  97.2291  13.3073 0009704 339.2214  20.8629 15.25850643246049
LITUANICASAT-2          
1 42768U 17036D   21328.10063329  .00005202  00000+0  19251-3 0  9993
2 42768  97.2373  13.8930 0011875 326.1305  33.9175 15.28040103245830
AALTO-1                 
1 42775U 17036L   21328.73844720  .00001704  00000+0  74600-4 0  9995
2 42775  97.2271   9.1905 0012507 336.9842  23.0834 15.23291361245597
URSA MAIOR              
1 42776U 17036M   21328.05348230  .00001966  00000+0  84816-4 0  9996
2 42776  97.2285   9.0950 0012321 338.7306  21.3417 15.23617830245514
COMPASS 2               
1 42777U 17036N   21329.07182311  .00003803  00000+0  14580-3 0  9998
2 42777  97.2356  14.7796 0010064 325.7652  34.2938 15.27052527245912
DIAMOND RED             
1 42783U 17036U   21328.37289412  .00002084  00000+0  87136-4 0  9995
2 42783  97.2298  11.3629 0010794 345.5159  14.5768 15.24629561245674
PEGASUS                 
1 42784U 17036V   21329.08435063  .00002378  00000+0  97047-4 0  9998
2 42784  97.2301  12.8938 0010404 340.4412  19.6426 15.25318855245830
DIAMOND GREEN           
1 42785U 17036W   21328.37235445  .00002291  00000+0  95533-4 0  9994
2 42785  97.2301  11.4159 0010664 346.1296  13.9647 15.24621603245741
DIAMOND BLUE            
1 42786U 17036X   21328.10886560  .00002379  00000+0  99101-4 0  9998
2 42786  97.2300  11.1539 0010660 347.6857  12.4119 15.24621771245705
NUDTSAT                 
1 42787U 17036Y   21328.92919710  .00004236  00000+0  15849-3 0  9993
2 42787  97.2347  15.7361 0009703 333.7804  26.2938 15.27804587245820
SUCHAI                  
1 42788U 17036Z   21328.86021769  .00003016  00000+0  11877-3 0  9997
2 42788  97.2308  13.8943 0009789 337.8989  22.1827 15.26321536245948
SKCUBE                  
1 42789U 17036AA  21328.06846245  .00003115  00000+0  12387-3 0  9991
2 42789  97.2306  12.7566 0009813 341.6370  18.4513 15.25965880245722
VZLUSAT-1               
1 42790U 17036AB  21328.07544375  .00004495  00000+0  16834-3 0  9996
2 42790  97.2338  14.8922 0008878 336.0404  24.0421 15.27745888245844
ROBUSTA-1B              
1 42792U 17036AD  21329.05897757  .00002816  00000+0  11128-3 0  9998
2 42792  97.2306  14.1619 0009331 338.4127  21.6717 15.26262349245914
CICERO 6                
1 42793U 17036AE  21328.66200100  .00001895  00000+0  79174-4 0  9997
2 42793  97.2278  12.2313 0009092 346.0167  14.0818 15.24780167245847
CORVUS BC2              
1 42846U 17042X   21328.88285744  .00000185  00000+0  23179-4 0  9999
2 42846  97.4466 192.4792 0008713 330.5628  29.5100 14.92429179237762
CORVUS BC1              
1 42847U 17042Y   21328.84310605  .00000535  00000+0  57187-4 0  9996
2 42847  97.4469 192.7099 0008381 329.8343  30.2393 14.92525282237760
MIRATA                  
1 43015U 17073C   21329.18908086  .00001597  00000+0  12408-3 0  9997
2 43015  97.6899 227.2616 0248227 130.8332 231.4695 14.81458745217001
MAKERSAT 0              
1 43016U 17073D   21329.17917847  .00001075  00000+0  85975-4 0  9993
2 43016  97.6929 227.1541 0252721 133.7822 228.4606 14.80498250216946
AEROCUBE 7B (OCSD B)    
1 43042U 17071F   21328.66215967  .00013363  00000+0  21888-3 0  9992
2 43042  51.6372 355.8855 0001843 150.9201 209.1892 15.52808126223682
AEROCUBE 7C (OCSD C)    
1 43043U 17071G   21328.64921732  .00012601  00000+0  20948-3 0  9995
2 43043  51.6361 356.5339 0001963 160.9361 199.1703 15.52451644223641
CHEFSAT                 
1 43044U 17071H   21328.33389860  .00162497  00000+0  78596-3 0  9993
2 43044  51.6262 302.2947 0005899  86.9799 273.1878 15.81505093224343
ASGARDIA 1              
1 43049U 17071N   21328.61816687  .00012569  00000+0  21266-3 0  9997
2 43049  51.6380 356.4883 0000229 132.8662 227.2347 15.51957728223647
ISARA                   
1 43050U 17071P   21329.00240085  .00053760  00000+0  44016-3 0  9992
2 43050  51.6287 312.5424 0004094  66.7807 293.3621 15.69967997224254
PROPCUBE 2 (FAUNA)      
1 43052U 17071R   21329.11096126  .00012516  00000+0  20102-3 0  9995
2 43052  51.6361 349.2617 0000512  72.5151 287.5895 15.53422387223774
CORVUS BC3              
1 43118U 18004H   21328.43817425  .00001791  00000+0  74783-4 0  9990
2 43118  97.3882  38.9467 0010135  15.9635 344.1920 15.24902629214956
MICROMAS-2A             
1 43131U 18004W   21328.16635415  .00005083  00000+0  18311-3 0  9994
2 43131  97.3982  43.1032 0007968   9.0545 351.0837 15.28986949215150
SPACEBEE-4              
1 43139U 18004AE  21328.44100916  .00007859  00000+0  25576-3 0  9990
2 43139  97.4063  46.5107 0006734   4.8730 355.2576 15.32121708215355
SPACEBEE-3              
1 43140U 18004AF  21329.17412281  .00010483  00000+0  31324-3 0  9999
2 43140  97.4100  49.3226 0005882 357.0780   3.0428 15.34761771215595
SPACEBEE-2              
1 43141U 18004AG  21328.45307739  .00012251  00000+0  35497-3 0  9991
2 43141  97.4125  49.3959 0005504 357.1156   3.0055 15.35692966215524
SPACEBEE-1              
1 43142U 18004AH  21328.53226864  .00013158  00000+0  36720-3 0  9997
2 43142  97.4138  50.2967 0005295 351.7450   8.3706 15.36852056215578
CICERO 7                
1 43143U 18004AJ  21328.45750814  .00004370  00000+0  15905-3 0  9994
2 43143  97.3955  43.3382 0006677  20.5901 339.5607 15.28740677215212
GOMX-4B                 
1 43196U 18015E   21328.56012396  .00000969  00000+0  41242-4 0  9996
2 43196  97.5072 101.7868 0019418  60.1434 300.1730 15.25322312211911
GOMX-4A                 
1 43197U 18015F   21329.17293000  .00002063  00000+0  82417-4 0  9994
2 43197  97.5064 102.8108 0019519  58.5836  66.2087 15.26143082212047
AEROCUBE 12A            
1 43556U 18046C   21328.83255357  .00004858  00000+0  16036-3 0  9999
2 43556  51.6394  95.8304 0007254  22.1840 337.9455 15.33232607187876
AEROCUBE 12B            
1 43557U 18046D   21328.80296786  .00002918  00000+0  10344-3 0  9999
2 43557  51.6397  98.5849 0007542  21.3771 338.7525 15.32430611187789
SURFSAT                 
1 43614U 18070B   21328.91271995  .00006356  00000+0  13687-3 0  9990
2 43614  93.0250  12.9410 0016141  98.5820 261.7267 15.44489347179413
CP7 (DAVE)              
1 43615U 18070C   21328.89982414  .00006079  00000+0  13265-3 0  9997
2 43615  93.0256  12.8672 0016331  98.9124 261.3983 15.44094828179395
ELFIN-B                 
1 43616U 18070D   21328.36123523  .00010298  00000+0  19282-3 0  9991
2 43616  93.0204  13.0834 0015609  96.4764 263.8273 15.48544015179483
ELFIN-A                 
1 43617U 18070E   21328.90718295  .00011421  00000+0  20814-3 0  9990
2 43617  93.0260  14.3277 0014787  92.2163 268.0790 15.49324544179591
CUBEBEL-1 (BSUSAT-1)    
1 43666U 18083E   21329.10611613  .00002282  00000+0  10858-3 0  9999
2 43666  97.4424 355.4087 0013513 334.6804 111.3627 15.20112090170415
CICERO 10               
1 43690U 18088A   21328.65387230  .00002310  00000+0  99342-4 0  9993
2 43690  85.0369  91.9095 0014473 173.1928 186.9513 15.21959515168582
